#cP2023 11 18  0  0  0.00000000      96 ORBIT IGS20 HLM  IGS
## 2288 518400.00000000   900.00000000 60266 0.0000000000000
+   32   G01G02G03G04G05G06G07G08G09G10G11G12G13G14G15G16G17
+        G18G19G20G21G22G23G24G25G26G27G28G29G30G31G32  0  0
+          0  0  0  0  0  0  0  0  0  0  0  0  0  0  0  0  0
+          0  0  0  0  0  0  0  0  0  0  0  0  0  0  0  0  0
+          0  0  0  0  0  0  0  0  0  0  0  0  0  0  0  0  0
++         2  2  2  2  2  2  2  2  2  2  2  2  2  2  2  2  2
++         2  2  2  2  2  2  2  3  3  2  2  2  2  2  2  0  0
++         0  0  0  0  0  0  0  0  0  0  0  0  0  0  0  0  0
++         0  0  0  0  0  0  0  0  0  0  0  0  0  0  0  0  0
++         0  0  0  0  0  0  0  0  0  0  0  0  0  0  0  0  0
%c G  cc GPS ccc cccc cccc cccc cccc ccccc ccccc ccccc ccccc
%c cc cc ccc ccc cccc cccc cccc cccc ccccc ccccc ccccc ccccc
%f  1.2500000  1.025000000  0.00000000000  0.000000000000000
%f  0.0000000  0.000000000  0.00000000000  0.000000000000000
%i    0    0    0    0      0      0      0      0         0
%i    0    0    0    0      0      0      0      0         0
/* RAPID ORBIT COMBINATION FROM WEIGHTED AVERAGE OF:        
/* cod emr esa gfz grg jgx jpl ngs sio usn whu              
/* REFERENCED TO IGS TIME (IGST) AND TO WEIGHTED MEAN POLE: 
/* PCV:IGS20      OL/AL:FES2014b NONE     Y  ORB:CMB CLK:CMB
*  2023 11 18  8 15  0.00000000
PG01  14367.517164  13883.533649 -18016.003913    163.211842  7  7  6  78       
PG02   8737.566242  14218.720674 -20206.580833   -527.428012  7  8  6  67       
PG03  12091.009061  23542.120463   2698.513445     -6.396427  5  3  6  81       
PG04   6542.036956  15051.628310  20863.288276    216.047965  5  3  7 108       
PG05  -4233.036211 -24150.550455   9918.194804   -150.825562  7  6  6  73       
PG06  21156.953363  -6967.507927  14613.107023    502.845028  4  4  5  82       
PG07  25802.837814   6183.434127   4375.974976     10.446881  7  4  4  69       
PG08   -459.817053  20818.525140 -16323.524550   -152.661110  7  7  4  66       
PG09  15081.098992   4654.269492  21282.475225      0.479167  4  6  4 110       
PG10 -14488.619819   3292.807544 -21846.256569    -61.847983  3  6  5  85       
PG11  10377.794576 -12853.643885  20806.678012   -464.983081  4  5  6  84       
PG12  -9603.585237 -24764.128019   1187.971603   -448.238702  5  7  8  77       
PG13  11199.025484 -21628.865140 -10531.043391    596.512282  5  6  5 110       
PG14  16378.730208    486.219591 -20909.765274    246.515549  6  5  8  95       
PG15  -2808.528317 -20804.871073 -16629.058115     98.271210  7  5  5 102       
PG16  -2959.060932  21940.293412  14009.386441   -420.041482  7  4  7 116       
PG17  20356.650439  -9463.027689 -13859.004616    723.116641  3  6  3 100       
PG18 -26126.709571  -4915.224421   2026.846814   -482.388210  7  7  6  92       
PG19  20465.196137 -15232.605574  -6897.466826    400.500942  4  4  5 100       
PG20   4527.450819 -17975.424373  19136.895709    401.042784  6  6  3  80       
PG21   5686.206400  14772.625219 -20953.784858    143.959232  6  8  4  55       
PG22  13165.929077  -7546.582527 -21374.497845     81.790929  4  6  5  80       
PG23 -17572.782123  -9951.347957 -17336.360100    100.871604  6  6  3  66       
PG24  -9998.025928 -15035.618203 -19998.228815   -373.934759  5  5  6  82       
PG25 -16703.354432 -17110.514027  11521.039084    477.884642  9  7  8  91       
PG26  -8772.371829  14995.866876  19864.108169    215.830395  6  5  7 117       
PG27 -11777.338329  22882.073556  -5850.516341    -71.530347  7  6  7  97       
PG28 -22340.927649   6957.566449  12544.093029    -48.824102  6  5  7  84       
PG29 -14121.692632  -6133.902571  21611.098066   -610.199152  6  2  4  85       
PG30  25918.578495  -1418.555287  -6134.410096   -467.020292  5  4  2  87       
PG31 -15976.467759  10823.693941  18222.235333   -225.850100  6  7  5  94       
PG32 -19645.395967  13392.504468 -11432.942378   -587.053317  6  5  7  98       
*  2023 11 18  8 30  0.00000000
PG01  12301.716900  13737.664306 -19587.982729    163.211948  8  7  6  68       
PG02   6279.153274  14284.261551 -21019.122553   -527.423443  7  8  6  93       
PG03  11989.046813  23765.509996   -187.677322     -6.373237  5  2  6  94       
PG04   5074.346284  16864.128308  19849.405363    216.057354  4  4  7 113       
PG05  -3436.828046 -23098.413064  12388.920951   -150.827161  7  6  6  66       
PG06  22659.443331  -6695.187640  12301.897800    502.835884  5  4  5  91       
PG07  25191.554017   6366.450158   7083.678627     10.437736  7  4  4  83       
PG08  -1593.663863  22175.291041 -14295.484089   -152.662138  7  7  4  87       
PG09  13744.888786   6736.789373  21620.812316      0.489381  4  5  4 113       
PG10 -15540.172336   1019.369142 -21375.770330    -61.849641  3  6  5  92       
PG11  12661.914745 -12459.269877  19749.584435   -464.997576  4  5  6  91       
PG12  -9380.954244 -24853.538801  -1670.339116   -448.242164  5  7  8  94       
PG13  12061.513617 -22240.486293  -7912.896690    596.516176  5  5  5 104       
PG14  17245.738582   2670.492689 -20046.154567    246.525203  6  5  9  88       
PG15  -1836.609801 -22253.802082 -14702.221757     98.274236  8  5  5 103       
PG16  -3777.549653  20335.658291  16078.603789   -420.035312  7  5  7 121       
PG17  19393.280579  -7970.202109 -15944.646553    723.116140  3  5  3  89       
PG18 -25718.228274  -5074.706158   4863.045970   -482.397966  7  7  6  75       
PG19  20035.022751 -14379.591368  -9579.997963    400.505420  3  4  6  87       
PG20   5906.683227 -16201.365386  20296.004265    401.041277  6  6  4  84       
PG21   3165.177173  14793.823968 -21372.575356    143.958628  6  8  4  89       
PG22  14042.022277  -5154.031844 -21499.086984     81.784738  4  6  5  88       
PG23 -18301.593994 -11674.326829 -15418.447932    100.877365  7  6  3  86       
PG24  -7738.961226 -15138.718647 -20882.288177   -373.942804  5  4  6  92       
PG25 -17026.352066 -18302.813077   9040.959500    477.886141  9  7  8  93       
PG26 -10036.282587  12994.634994  20686.636349    215.827979  6  6  7 122       
PG27 -12272.435011  23130.401259  -3022.170252    -71.534928  7  6  7  94       
PG28 -23628.112096   6676.840563  10106.392111    -48.831927  6  5  7  94       
PG29 -12563.795728  -8083.441349  21919.786741   -610.199276  6  2  4  93       
PG30  26447.874514  -1070.385541  -3416.234339   -467.016632  5  3  2  70       
PG31 -17963.764769  10467.862969  16557.296555   -225.850537  6  6  5 106       
PG32 -19004.160437  12044.212384 -13762.538908   -587.057312  6  5  7  90       
*  2023 11 18  8 45  0.00000000
PG01  10073.159495  13705.357194 -20835.567025    163.212124  8  8  5  92       
PG02   3752.105423  14481.909253 -21453.951033   -527.418759  7  8  6  93       
PG03  11744.252312  23707.091190  -3070.675962     -6.350022  6  3  5 100       
PG04   3776.641121  18639.579457  18493.026498    216.066714  4  5  6 121       
PG05  -2444.778830 -21859.524082  14643.401267   -150.828415  7  5  6  69       
PG06  23901.953605  -6517.732484   9780.831383    502.826679  5  4  5 104       
PG07  24297.655944   6570.562708   9674.457945     10.428947  6  3  4  99       
PG08  -2538.373722  23376.388153 -12017.855878   -152.662945  8  7  4  95       
PG09  12508.233116   8900.412276  21584.209227      0.499574  4  6  4 118       
PG10 -16677.697326  -1123.623872 -20532.755305    -61.850801  3  6  5  97       
PG11  14825.637851 -12196.247664  18352.768583   -465.012072  5  5  6  93       
PG12  -9031.325385 -24661.946289  -4500.109842   -448.246303  5  6  8  76       
PG13  12698.996227 -22660.906958  -5157.794058    596.519604  5  5  6  99       
PG14  18167.552100   4702.786047 -18838.293764    246.534829  7  6  9  83       
PG15  -1021.354111 -23539.919031 -12527.313864     98.277602  8  5  6 101       
PG16  -4765.838203  18572.170769  17859.522468   -420.029353  6  5  6 127       
PG17  18382.564373  -6241.185363 -17748.987700    723.115951  5  5  3  96       
PG18 -25003.777657  -5243.360643   7616.489770   -482.407709  7  7  6  97       
PG19  19470.576273 -13272.344625 -12095.734030    400.510237  3  4  6  95       
PG20   7444.592073 -14411.888471  21108.709467    401.039318  5  6  5  92       
PG21    612.358492  14946.188324 -21407.629609    143.957212  6  7  4  89       
PG22  15037.285613  -2814.074551 -21237.922371     81.778186  5  6  5  78       
PG23 -19006.607743 -13153.644567 -13237.158462    100.883107  7  7  3 103       
PG24  -5406.481734 -15358.436306 -21421.521298   -373.950790  5  4  6 101       
PG25 -17268.706112 -19222.122599   6405.635200    477.887763  9  7  8 111       
PG26 -11430.400789  10996.295091  21147.152508    215.825504  6  6  7 129       
PG27 -12588.052309  23123.720582   -140.639295    -71.539659  7  5  7  99       
PG28 -24642.057611   6460.915363   7494.588819    -48.839751  6  5  7 107       
PG29 -11105.083189 -10126.229998  21849.890696   -610.199074  7  2  5  99       
PG30  26685.087922   -759.008121   -640.090597   -467.012942  4  3  1  78       
PG31 -19758.804702  10225.647864  14607.990707   -225.851036  6  6  6 110       
PG32 -18303.834102  10447.642651 -15850.267168   -587.061287  6  5  7 105       
EOF
